     2.11           N: GPS NAV DATA                         RINEX VERSION / TYPE
teqc  2019Feb25                         20221121 12:27:43UTCPGM / RUN BY / DATE
OSX ker:10.11.6|Core i5|gcc 4.3 -m64|OSX ker:10.10+|=+      COMMENT
    8.3819D-09  1.4901D-08 -5.9605D-08 -5.9605D-08          ION ALPHA
    8.3968D+04  1.6384D+04 -1.3107D+05 -6.5536D+04          ION BETA
    1.862645149231D-09 2.664535259100D-15   147456     1551 DELTA-UTC: A0,A1,T,W
                                                            END OF HEADER
11 09  9 27 22  0  0.0-2.162996679544D-05-1.818989403546D-12 0.000000000000D+00
    2.800000000000D+01 2.303125000000D+01 6.578845463892D-09 1.704962136962D+00
    1.242384314537D-06 9.918543044478D-03 6.981194019318D-06 5.153697961807D+03
    7.920000000000D+04-2.793967723846D-07-2.871537134979D+00 7.636845111847D-08
    8.893917095004D-01 2.084375000000D+02 7.322815492316D-01-9.003946479083D-09
    1.171477368163D-10 1.000000000000D+00 1.551000000000D+03 0.000000000000D+00
    2.000000000000D+00 0.000000000000D+00-1.164153218269D-08 2.800000000000D+01
    7.201800000000D+04 4.000000000000D+00
28 09  9 27 22  0  0.0-2.608215436339D-05 1.136868377216D-13 0.000000000000D+00
    6.100000000000D+01-8.328125000000D+01 4.381611083118D-09-1.109127545077D+00
   -3.959983587265D-06 1.512582553551D-02 7.163733243942D-06 5.153655361176D+03
    7.920000000000D+04 1.285225152969D-07 1.569588964412D+00 3.762543201447D-07
    9.674601982120D-01 2.429687500000D+02-2.017035177566D+00-8.093194256883D-09
    3.643008888800D-11 1.000000000000D+00 1.551000000000D+03 0.000000000000D+00
    2.000000000000D+00 0.000000000000D+00-1.024454832077D-08 6.100000000000D+01
    7.201800000000D+04 4.000000000000D+00
17 09  9 27 22  0  0.0 8.844397962093D-05 3.183231456205D-12 0.000000000000D+00
    6.800000000000D+01-2.106250000000D+01 4.580547941065D-09-1.666118660050D+00
   -1.057982444763D-06 4.681809805334D-03 9.566545486450D-06 5.153739145279D+03
    7.920000000000D+04 8.940696716309D-08 2.604390870351D+00-3.725290298462D-09
    9.601330179427D-01 1.933750000000D+02-2.646427814044D+00-7.884614140113D-09
    3.685867816904D-10 1.000000000000D+00 1.551000000000D+03 0.000000000000D+00
    2.000000000000D+00 0.000000000000D+00-1.024454832077D-08 6.800000000000D+01
    7.201800000000D+04 4.000000000000D+00
27 09  9 27 22  0  0.0 8.642300963402D-05 3.296918293927D-12 0.000000000000D+00
    2.100000000000D+01 1.815625000000D+01 4.036953869618D-09-2.067488950208D+00
    1.249834895134D-06 2.137499046512D-02 3.285706043243D-06 5.153736757278D+03
    7.920000000000D+04 3.688037395477D-07 4.340734215175D-01 2.291053533554D-07
    9.759666601517D-01 3.166562500000D+02-1.541655463864D+00-7.773180927044D-09
    2.114373786441D-10 1.000000000000D+00 1.551000000000D+03 0.000000000000D+00
    2.000000000000D+00 0.000000000000D+00-4.190951585770D-09 2.100000000000D+01
    7.201800000000D+04 4.000000000000D+00
 9 09  9 27 22  0  0.0 7.991585880518D-05 2.160049916711D-12 0.000000000000D+00
    1.180000000000D+02 9.343750000000D+00 4.260891768959D-09 9.461697472192D-01
    1.806765794754D-07 2.067432738841D-02 4.423782229424D-06 5.153625492096D+03
    7.920000000000D+04-2.533197402954D-07 4.583819061549D-01-1.750886440277D-07
    9.779087687512D-01 3.068125000000D+02 1.515122710302D+00-8.404278643368D-09
    5.500229106620D-11 1.000000000000D+00 1.551000000000D+03 0.000000000000D+00
    2.000000000000D+00 0.000000000000D+00-5.587935447693D-09 1.180000000000D+02
    7.201800000000D+04 4.000000000000D+00
26 09  9 27 22  0  0.0 6.157532334328D-05-1.136868377216D-12 0.000000000000D+00
    2.400000000000D+01 4.390625000000D+01 3.661223933244D-09 1.284999477569D+00
    2.276152372360D-06 1.967888616491D-02 8.160248398781D-06 5.153612823486D+03
    7.920000000000D+04-3.427267074585D-07-4.974010429557D-01-2.607703208923D-08
    9.923384031291D-01 2.486875000000D+02 1.029997549841D+00-7.890685821594D-09
   -1.946509651369D-10 1.000000000000D+00 1.551000000000D+03 0.000000000000D+00
    2.000000000000D+00 0.000000000000D+00-6.053596735001D-09 2.400000000000D+01
    7.201800000000D+04 4.000000000000D+00
32 09  9 27 21 59 44.0 1.884894445539D-04-7.275957614183D-12 0.000000000000D+00
    3.200000000000D+01 2.787500000000D+01 4.464114519717D-09 2.581681703348D+00
    1.464039087296D-06 1.327375299297D-02 7.649883627892D-06 5.153709743500D+03
    7.918400000000D+04 2.495944499969D-07-1.518092665144D+00 5.401670932770D-08
    9.620092411006D-01 2.283125000000D+02-1.112029782904D+00-7.802825018982D-09
   -5.085926134952D-10 1.000000000000D+00 1.551000000000D+03 0.000000000000D+00
    2.000000000000D+00 0.000000000000D+00-3.259629011154D-09 3.200000000000D+01
    7.201800000000D+04 4.000000000000D+00
22 09  9 27 22  0  0.0 1.899856142700D-04-9.094947017729D-13 0.000000000000D+00
    2.200000000000D+01 1.571875000000D+01 5.051996150204D-09-1.356146672632D+00
    6.835907697678D-07 5.349953076802D-03 7.327646017075D-06 5.153661878586D+03
    7.920000000000D+04 7.078051567078D-08-1.570969202750D+00 1.732259988785D-07
    9.379668875944D-01 2.278437500000D+02-1.885433880346D+00-8.281416382805D-09
   -4.646622121891D-10 1.000000000000D+00 1.551000000000D+03 0.000000000000D+00
    2.000000000000D+00 0.000000000000D+00-1.769512891769D-08 2.200000000000D+01
    7.201800000000D+04 4.000000000000D+00
14 09  9 27 22  0  0.0-4.510860890150D-05 5.115907697473D-12 0.000000000000D+00
    4.900000000000D+01 5.040625000000D+01 3.654437936294D-09-2.167471771808D+00
    2.725049853325D-06 4.961396800354D-03 7.499009370804D-06 5.153653863907D+03
    7.920000000000D+04 2.048909664154D-08-5.150556509810D-01-9.126961231232D-08
    9.879507431540D-01 2.523437500000D+02-2.150566771784D+00-7.587816062996D-09
   -2.500104139373D-11 1.000000000000D+00 1.551000000000D+03 0.000000000000D+00
    2.000000000000D+00 0.000000000000D+00-8.847564458847D-09 4.900000000000D+01
    7.201800000000D+04 4.000000000000D+00
20 09  9 27 22  0  0.0 7.127225399017D-05-9.094947017729D-13 0.000000000000D+00
    5.500000000000D+01 2.146875000000D+01 5.117713173296D-09-1.492612068598D-01
    1.095235347748D-06 3.842134610750D-03 7.476657629013D-06 5.153766878128D+03
    7.920000000000D+04 3.725290298462D-09-1.630311226767D+00-2.421438694000D-08
    9.400164709334D-01 2.224375000000D+02 1.314045252288D+00-8.384277810253D-09
   -4.485901141503D-10 1.000000000000D+00 1.551000000000D+03 0.000000000000D+00
    2.000000000000D+00 0.000000000000D+00-7.450580596924D-09 5.500000000000D+01
    7.240200000000D+04 4.000000000000D+00
12 09  9 27 21 59 44.0-2.125734463334D-04 5.570655048359D-12 0.000000000000D+00
    3.000000000000D+00-7.659375000000D+01 4.354109937584D-09 1.883161896886D+00
   -4.190951585770D-06 3.068637568504D-03 6.653368473053D-06 5.153566394806D+03
    7.918400000000D+04 1.490116119385D-08 1.544420582379D+00 5.401670932770D-08
    9.678721296106D-01 2.583437500000D+02-5.873554075160D-01-7.937473484774D-09
    2.571535686212D-11 1.000000000000D+00 1.551000000000D+03 0.000000000000D+00
    2.000000000000D+00 0.000000000000D+00-1.164153218269D-08 3.000000000000D+00
    7.714200000000D+04 4.000000000000D+00
 4 09  9 27 22  0  0.0-2.852752804756D-04-1.739408617141D-11 0.000000000000D+00
    4.400000000000D+01 2.165625000000D+01 5.388795893551D-09 8.767645481913D-02
    1.208856701851D-06 8.796451380476D-03 6.282702088356D-06 5.153800020218D+03
    7.920000000000D+04 4.097819328308D-08-2.647022926193D+00 8.940696716309D-08
    9.401870325523D-01 2.451875000000D+02 5.211399419018D-01-8.492853761449D-09
   -3.857303529318D-11 1.000000000000D+00 1.551000000000D+03 0.000000000000D+00
    2.000000000000D+00 0.000000000000D+00-6.053596735001D-09 4.400000000000D+01
    7.738200000000D+04 4.000000000000D+00
12 09  9 27 23 59 44.0-2.125329338014D-04 5.570655048359D-12 0.000000000000D+00
    4.000000000000D+00-8.606250000000D+01 4.216604209919D-09 2.933176765466D+00
   -4.490837454796D-06 3.067341633141D-03 6.636604666710D-06 5.153569091797D+03
    8.638400000000D+04 2.421438694000D-08 1.544363563684D+00 2.235174179077D-08
    9.678721764240D-01 2.518437500000D+02-5.871259327232D-01-7.941402219850D-09
   -2.142946405177D-12 1.000000000000D+00 1.551000000000D+03 0.000000000000D+00
    2.000000000000D+00 0.000000000000D+00-1.164153218269D-08 4.000000000000D+00
    7.921800000000D+04 4.000000000000D+00
 2 09  9 27 23 59 44.0 1.759999431670D-04 3.296918293927D-12 0.000000000000D+00
    9.000000000000D+00 2.228125000000D+01 5.348079911852D-09-1.692888783773D+00
    1.147389411926D-06 9.099187445827D-03 6.709247827530D-06 5.153708305359D+03
    8.638400000000D+04-2.980232238770D-08-2.665301277136D+00-1.974403858185D-07
    9.410081713960D-01 2.405000000000D+02 2.896911551468D+00-8.390706649469D-09
    1.635782422618D-10 1.000000000000D+00 1.551000000000D+03 0.000000000000D+00
    2.000000000000D+00 0.000000000000D+00-1.722946763039D-08 9.000000000000D+00
    8.119200000000D+04 4.000000000000D+00
